NORAD_CAT_ID,OBJECT_NAME,OBJECT_TYPE,EPOCH,MEAN_MOTION,ECCENTRICITY,INCLINATION,RA_OF_ASC_NODE,ARG_OF_PERICENTER,MEAN_ANOMALY,BSTAR,MEAN_MOTION_DOT,MEAN_MOTION_DDOT,TLE_LINE0,TLE_LINE1,TLE_LINE2,SEMIMAJOR_AXIS,PERIOD,APOGEE,PERIGEE,DECAYED
49426.0,STARLINK-3114,PAYLOAD,2023-02-25 13:15:21,15.08826045,0.0001349,53.2155,163.7441,86.1177,273.9969,2.3643e-05,8.8e-07,0.0,0 STARLINK-3114,1 49426U 21104U   23056.55233580  .00000088  00000-0  23643-4 0  9998,2 49426  53.2155 163.7441 0001349  86.1177 273.9969 15.08826045 71339,6917.923,95.438,540.721,538.855,0.0
49426.0,STARLINK-3114,PAYLOAD,2023-02-25 14:50:44,15.08831081,0.0001272,53.2155,163.4463,87.2913,272.8224,8.0454e-05,9.92e-06,0.0,0 STARLINK-3114,1 49426U 21104U   23056.61857539  .00000992  00000-0  80454-4 0  9998,2 49426  53.2155 163.4463 0001272  87.2913 272.8224 15.08831081 71344,6917.908,95.438,540.653,538.893,0.0
49426.0,STARLINK-3114,PAYLOAD,2023-02-26 00:23:03,15.08845033,0.0001258,53.2154,161.6629,87.2188,272.8948,0.00039239,5.963e-05,0.0,0 STARLINK-3114,1 49426U 21104U   23057.01601278  .00005963  00000-0  39239-3 0  9997,2 49426  53.2154 161.6629 0001258  87.2188 272.8948 15.08845033 72497,6917.865,95.437,540.6,538.86,0.0
49426.0,STARLINK-3114,PAYLOAD,2023-02-26 11:30:44,15.08875581,0.0001223,53.2142,159.5802,84.1904,275.9227,0.0013927,0.00021968,0.0,0 STARLINK-3114,1 49426U 21104U   23057.47968561  .00021968  00000-0  13927-2 0  9996,2 49426  53.2142 159.5802 0001223  84.1904 275.9227 15.08875581 71479,6917.772,95.435,540.483,538.791,0.0
49426.0,STARLINK-3114,PAYLOAD,2023-02-26 16:16:53,15.0889413,0.000121,53.2139,158.6877,82.3286,277.7843,0.0018938,0.00030025,0.0,0 STARLINK-3114,1 49426U 21104U   23057.67839920  .00030025  00000-0  18938-2 0  9995,2 49426  53.2139 158.6877 0001210  82.3286 277.7843 15.08894130 72595,6917.715,95.434,540.417,538.743,0.0
49426.0,STARLINK-3114,PAYLOAD,2023-02-27 06:35:22,15.08850569,4.27e-05,53.215,156.0129,108.7792,251.3247,0.001258,0.00019796,0.0,0 STARLINK-3114,1 49426U 21104U   23058.27456281  .00019796  00000-0  12580-2 0  9996,2 49426  53.2150 156.0129 0000427 108.7792 251.3247 15.08850569 72688,6917.848,95.437,540.008,539.418,0.0
49426.0,STARLINK-3114,PAYLOAD,2023-02-27 14:32:17,15.08884837,0.0001111,53.2147,154.5245,124.0875,236.0223,0.0044914,0.00072012,0.0,0 STARLINK-3114,1 49426U 21104U   23058.60576124  .00072012  00000-0  44914-2 0  9998,2 49426  53.2147 154.5245 0001111 124.0875 236.0223 15.08884837 72735,6917.743,95.435,540.377,538.84,0.0
49426.0,STARLINK-3114,PAYLOAD,2023-02-28 06:26:09,15.08877794,0.0001551,53.2145,151.5502,112.4226,247.6931,0.0023946,0.00038068,0.0,0 STARLINK-3114,1 49426U 21104U   23059.26816010  .00038068  00000-0  23946-2 0  9997,2 49426  53.2145 151.5502 0001551 112.4226 247.6931 15.08877794 72834,6917.765,95.435,540.703,538.557,0.0
49426.0,STARLINK-3114,PAYLOAD,2023-02-28 12:47:41,15.08865563,0.0001336,53.2156,150.3597,117.0118,243.1011,0.00091325,0.00014286,0.0,0 STARLINK-3114,1 49426U 21104U   23059.53311575  .00014286  00000-0  91325-3 0  9996,2 49426  53.2156 150.3597 0001336 117.0118 243.1011 15.08865563 71783,6917.802,95.436,540.591,538.743,0.0
49426.0,STARLINK-3114,PAYLOAD,2023-03-01 04:41:33,15.08820605,0.000132,53.2148,147.3848,101.4042,258.7098,0.00016061,2.268e-05,0.0,0 STARLINK-3114,1 49426U 21104U   23060.19553159  .00002268  00000-0  16061-3 0  9997,2 49426  53.2148 147.3848 0001320 101.4042 258.7098 15.08820605 72972,6917.94,95.439,540.718,538.892,0.0
49426.0,STARLINK-3114,PAYLOAD,2023-03-01 11:03:07,15.08795176,0.0001745,53.2149,146.1957,108.1329,251.9854,-0.00037815,-6.294e-05,0.0,0 STARLINK-3114,1 49426U 21104U   23060.46050063 -.00006294  00000-0 -37815-3 0  9998,2 49426  53.2149 146.1957 0001745 108.1329 251.9854 15.08795176 73019,6918.017,95.44,541.09,538.675,0.0
49426.0,STARLINK-3114,PAYLOAD,2023-03-01 22:10:50,15.0880584,0.0001513,53.2157,144.1155,98.8965,261.2198,0.00087153,0.00013597,0.0,0 STARLINK-3114,1 49426U 21104U   23060.92419402  .00013597  00000-0  87153-3 0  9997,2 49426  53.2157 144.1155 0001513  98.8965 261.2198 15.08805840 73082,6917.985,95.44,540.896,538.803,0.0
49426.0,STARLINK-3114,PAYLOAD,2023-03-02 15:40:04,15.08873311,0.0001569,53.2154,140.8452,88.63,271.4872,0.0022191,0.00035238,0.0,0 STARLINK-3114,1 49426U 21104U   23061.65283083  .00035238  00000-0  22191-2 0  9998,2 49426  53.2154 140.8452 0001569  88.6300 271.4872 15.08873311 72105,6917.779,95.435,540.729,538.558,0.0
49426.0,STARLINK-3114,PAYLOAD,2023-03-03 09:09:17,15.08883405,0.0002738,53.2155,137.5738,126.0073,234.1173,0.00092955,0.00014555,0.0,0 STARLINK-3114,1 49426U 21104U   23062.38145514  .00014555  00000-0  92955-3 0  9990,2 49426  53.2155 137.5738 0002738 126.0073 234.1173 15.08883405 73307,6917.748,95.435,541.507,537.719,0.0
49426.0,STARLINK-3114,PAYLOAD,2023-03-03 10:44:40,15.08885198,0.000269,53.2154,137.2765,126.9945,233.1293,0.00096634,0.00015144,0.0,0 STARLINK-3114,1 49426U 21104U   23062.44769314  .00015144  00000-0  96634-3 0  9990,2 49426  53.2154 137.2765 0002690 126.9945 233.1293 15.08885198 72220,6917.742,95.435,541.468,537.746,0.0
49426.0,STARLINK-3114,PAYLOAD,2023-03-03 13:55:26,15.0890826,0.0001842,53.2147,136.6823,95.5938,264.5264,0.001937,0.00030732,0.0,0 STARLINK-3114,1 49426U 21104U   23062.58016924  .00030732  00000-0  19370-2 0  9998,2 49426  53.2147 136.6823 0001842  95.5938 264.5264 15.08908260 72245,6917.672,95.433,540.811,538.263,0.0
49426.0,STARLINK-3114,PAYLOAD,2023-03-03 21:52:22,15.08873199,0.0003028,53.2146,135.1964,79.7513,280.3821,0.0020778,0.00032967,0.0,0 STARLINK-3114,1 49426U 21104U   23062.91137559  .00032967  00000-0  20778-2 0  9999,2 49426  53.2146 135.1964 0003028  79.7513 280.3821 15.08873199 73388,6917.779,95.435,541.739,537.549,0.0
49426.0,STARLINK-3114,PAYLOAD,2023-03-04 05:49:18,15.08845485,0.0001094,53.2153,133.7101,104.4927,255.6187,0.00097391,0.00015248,0.0,0 STARLINK-3114,1 49426U 21104U   23063.24257031  .00015248  00000-0  97391-3 0  9993,2 49426  53.2153 133.7101 0001094 104.4927 255.6187 15.08845485 73432,6917.864,95.437,540.485,538.972,0.0
49426.0,STARLINK-3114,PAYLOAD,2023-03-04 10:35:27,15.08847331,0.0001175,53.2151,132.8173,93.1222,266.9904,0.0016819,0.00026586,0.0,0 STARLINK-3114,1 49426U 21104U   23063.44129054  .00026586  00000-0  16819-2 0  9990,2 49426  53.2151 132.8173 0001175  93.1222 266.9904 15.08847331 72377,6917.858,95.437,540.536,538.91,0.0
49426.0,STARLINK-3114,PAYLOAD,2023-03-04 21:43:10,15.0884301,0.0001496,53.2153,130.7358,71.4003,288.7151,0.0017721,0.0002803,0.0,0 STARLINK-3114,1 49426U 21104U   23063.90497810  .00028030  00000-0  17721-2 0  9998,2 49426  53.2153 130.7358 0001496  71.4003 288.7151 15.08843010 73538,6917.871,95.437,540.771,538.701,0.0
49426.0,STARLINK-3114,PAYLOAD,2023-03-05 13:37:01,15.08858798,0.0001371,53.2147,127.7623,68.1401,291.9737,0.0031018,0.00049449,0.0,0 STARLINK-3114,1 49426U 21104U   23064.56738208  .00049449  00000-0  31018-2 0  9992,2 49426  53.2147 127.7623 0001371  68.1401 291.9737 15.08858798 73635,6917.823,95.436,540.636,538.739,0.0
49426.0,STARLINK-3114,PAYLOAD,2023-03-05 21:33:57,15.08865219,3.35e-05,53.2152,126.2753,74.9319,285.171,0.0018784,0.00029754,0.0,0 STARLINK-3114,1 49426U 21104U   23064.89857649  .00029754  00000-0  18784-2 0  9991,2 49426  53.2152 126.2753 0000335  74.9319 285.1710 15.08865219 73688,6917.803,95.436,539.9,539.437,0.0
49426.0,STARLINK-3114,PAYLOAD,2023-03-06 10:17:01,15.08874029,0.0001326,53.2149,123.8962,85.6343,274.48,0.0018666,0.00029572,0.0,0 STARLINK-3114,1 49426U 21104U   23065.42849481  .00029572  00000-0  18666-2 0  9993,2 49426  53.2149 123.8962 0001326  85.6343 274.4800 15.08874029 73765,6917.776,95.435,540.559,538.724,0.0
49426.0,STARLINK-3114,PAYLOAD,2023-03-06 21:24:43,15.08862835,0.000141,53.2154,121.8147,98.5636,261.5516,0.0012059,0.00018968,0.0,0 STARLINK-3114,1 49426U 21104U   23065.89217293  .00018968  00000-0  12059-2 0  9991,2 49426  53.2154 121.8147 0001410  98.5636 261.5516 15.08862835 72746,6917.811,95.436,540.651,538.7,0.0
49426.0,STARLINK-3114,PAYLOAD,2023-03-07 03:46:16,15.08834316,0.0001712,53.213,120.6245,116.5593,243.5574,0.00043275,6.605e-05,0.0,0 STARLINK-3114,1 49426U 21104U   23066.15713558  .00006605  00000-0  43275-3 0  9996,2 49426  53.2130 120.6245 0001712 116.5593 243.5574 15.08834316 73876,6917.898,95.438,540.947,538.578,0.0
49426.0,STARLINK-3114,PAYLOAD,2023-03-07 13:18:35,15.08846777,0.0001976,53.2156,118.8375,139.2745,220.8396,0.00080183,0.00012499,0.0,0 STARLINK-3114,1 49426U 21104U   23066.55457425  .00012499  00000-0  80183-3 0  9995,2 49426  53.2156 118.8375 0001976 139.2745 220.8396 15.08846777 72840,6917.86,95.437,541.092,538.358,0.0
49426.0,STARLINK-3114,PAYLOAD,2023-03-08 03:37:04,15.08839413,0.0001334,53.2145,116.1649,99.3606,260.7537,0.00090855,0.00014201,0.0,0 STARLINK-3114,1 49426U 21104U   23067.15074405  .00014201  00000-0  90855-3 0  9995,2 49426  53.2145 116.1649 0001334  99.3606 260.7537 15.08839413 74024,6917.882,95.438,540.67,538.824,0.0
49426.0,STARLINK-3114,PAYLOAD,2023-03-08 19:30:55,15.08849653,0.0001142,53.2155,113.1899,105.047,255.0648,0.00097478,0.00015264,0.0,0 STARLINK-3114,1 49426U 21104U   23067.81314408  .00015264  00000-0  97478-3 0  9996,2 49426  53.2155 113.1899 0001142 105.0470 255.0648 15.08849653 74128,6917.851,95.437,540.506,538.926,0.0
49426.0,STARLINK-3114,PAYLOAD,2023-03-09 06:38:37,15.08847795,0.0001247,53.2154,111.1083,100.9784,259.1349,0.00048145,7.384e-05,0.0,0 STARLINK-3114,1 49426U 21104U   23068.27682335  .00007384  00000-0  48145-3 0  9995,2 49426  53.2154 111.1083 0001247 100.9784 259.1349 15.08847795 74193,6917.857,95.437,540.584,538.859,0.0
49426.0,STARLINK-3114,PAYLOAD,2023-03-09 19:21:42,15.0886534,0.0001279,53.2156,108.7306,85.6462,274.4677,0.00085855,0.00013412,0.0,0 STARLINK-3114,1 49426U 21104U   23068.80673685  .00013412  00000-0  85855-3 0  9990,2 49426  53.2156 108.7306 0001279  85.6462 274.4677 15.08865340 73180,6917.803,95.436,540.553,538.783,0.0
